CCSDS_OMM_VERS = 2.0
CREATION_DATE  = 
ORIGINATOR     = 

OBJECT_NAME    = PROGRESS-MS 32
OBJECT_ID      = 2025-204A
CENTER_NAME    = EARTH
REF_FRAME      = TEME
TIME_SYSTEM    = UTC
MEAN_ELEMENT_THEORY = SGP/SGP4

EPOCH          = 2025-11-24T20:48:53.618400
MEAN_MOTION    = 15.49056620
ECCENTRICITY   = .00038955
INCLINATION    = 51.6314
RA_OF_ASC_NODE = 230.9455
ARG_OF_PERICENTER = 164.8499
MEAN_ANOMALY   = 195.2607

EPHEMERIS_TYPE = 0
CLASSIFICATION_TYPE = U
NORAD_CAT_ID   = 65586
ELEMENT_SET_NO = 999
REV_AT_EPOCH   = 27
BSTAR          = .27142085E-3
MEAN_MOTION_DOT = .14562E-3
MEAN_MOTION_DDOT = 0

CCSDS_OMM_VERS = 2.0
CREATION_DATE  = 
ORIGINATOR     = 

OBJECT_NAME    = CYGNUS NG-23
OBJECT_ID      = 2025-208A
CENTER_NAME    = EARTH
REF_FRAME      = TEME
TIME_SYSTEM    = UTC
MEAN_ELEMENT_THEORY = SGP/SGP4

EPOCH          = 2025-11-24T20:48:53.618400
MEAN_MOTION    = 15.49056620
ECCENTRICITY   = .00038955
INCLINATION    = 51.6314
RA_OF_ASC_NODE = 230.9455
ARG_OF_PERICENTER = 164.8499
MEAN_ANOMALY   = 195.2607

EPHEMERIS_TYPE = 0
CLASSIFICATION_TYPE = U
NORAD_CAT_ID   = 65616
ELEMENT_SET_NO = 999
REV_AT_EPOCH   = 22
BSTAR          = .27142085E-3
MEAN_MOTION_DOT = .14562E-3
MEAN_MOTION_DDOT = 0

CCSDS_OMM_VERS = 2.0
CREATION_DATE  = 
ORIGINATOR     = 

OBJECT_NAME    = DRAGONFLY
OBJECT_ID      = 1998-067XH
CENTER_NAME    = EARTH
REF_FRAME      = TEME
TIME_SYSTEM    = UTC
MEAN_ELEMENT_THEORY = SGP/SGP4

EPOCH          = 2025-11-25T09:51:36.186336
MEAN_MOTION    = 15.66035145
ECCENTRICITY   = .0006159
INCLINATION    = 51.6251
RA_OF_ASC_NODE = 224.0765
ARG_OF_PERICENTER = 178.8848
MEAN_ANOMALY   = 181.2162

EPHEMERIS_TYPE = 0
CLASSIFICATION_TYPE = U
NORAD_CAT_ID   = 65729
ELEMENT_SET_NO = 999
REV_AT_EPOCH   = 1044
BSTAR          = .13578E-2
MEAN_MOTION_DOT = .14385E-2
MEAN_MOTION_DDOT = 0

CCSDS_OMM_VERS = 2.0
CREATION_DATE  = 
ORIGINATOR     = 

OBJECT_NAME    = 1998-067XJ
OBJECT_ID      = 1998-067XJ
CENTER_NAME    = EARTH
REF_FRAME      = TEME
TIME_SYSTEM    = UTC
MEAN_ELEMENT_THEORY = SGP/SGP4

EPOCH          = 2025-11-25T02:12:56.389248
MEAN_MOTION    = 15.91735483
ECCENTRICITY   = .0012397
INCLINATION    = 51.6184
RA_OF_ASC_NODE = 221.9008
ARG_OF_PERICENTER = 182.4641
MEAN_ANOMALY   = 177.6306

EPHEMERIS_TYPE = 0
CLASSIFICATION_TYPE = U
NORAD_CAT_ID   = 65730
ELEMENT_SET_NO = 999
REV_AT_EPOCH   = 1044
BSTAR          = .27351E-2
MEAN_MOTION_DOT = .918179E-2
MEAN_MOTION_DDOT = .36681E-3

CCSDS_OMM_VERS = 2.0
CREATION_DATE  = 
ORIGINATOR     = 

OBJECT_NAME    = 1998-067XK
OBJECT_ID      = 1998-067XK
CENTER_NAME    = EARTH
REF_FRAME      = TEME
TIME_SYSTEM    = UTC
MEAN_ELEMENT_THEORY = SGP/SGP4

EPOCH          = 2025-11-25T02:18:06.873696
MEAN_MOTION    = 15.62013873
ECCENTRICITY   = .0006088
INCLINATION    = 51.6290
RA_OF_ASC_NODE = 226.4795
ARG_OF_PERICENTER = 152.4661
MEAN_ANOMALY   = 207.6657

EPHEMERIS_TYPE = 0
CLASSIFICATION_TYPE = U
NORAD_CAT_ID   = 65731
ELEMENT_SET_NO = 999
REV_AT_EPOCH   = 1038
BSTAR          = .10147E-2
MEAN_MOTION_DOT = .90943E-3
MEAN_MOTION_DDOT = 0

CCSDS_OMM_VERS = 2.0
CREATION_DATE  = 
ORIGINATOR     = 

OBJECT_NAME    = RSP-03
OBJECT_ID      = 1998-067XL
CENTER_NAME    = EARTH
REF_FRAME      = TEME
TIME_SYSTEM    = UTC
MEAN_ELEMENT_THEORY = SGP/SGP4

EPOCH          = 2025-11-25T03:02:46.289760
MEAN_MOTION    = 15.63889416
ECCENTRICITY   = .0006858
INCLINATION    = 51.6285
RA_OF_ASC_NODE = 225.9317
ARG_OF_PERICENTER = 154.1951
MEAN_ANOMALY   = 205.9387

EPHEMERIS_TYPE = 0
CLASSIFICATION_TYPE = U
NORAD_CAT_ID   = 65732
ELEMENT_SET_NO = 999
REV_AT_EPOCH   = 1040
BSTAR          = .12086E-2
MEAN_MOTION_DOT = .117113E-2
MEAN_MOTION_DDOT = 0

CCSDS_OMM_VERS = 2.0
CREATION_DATE  = 
ORIGINATOR     = 

OBJECT_NAME    = GHS-01
OBJECT_ID      = 1998-067XM
CENTER_NAME    = EARTH
REF_FRAME      = TEME
TIME_SYSTEM    = UTC
MEAN_ELEMENT_THEORY = SGP/SGP4

EPOCH          = 2025-11-25T03:08:41.820576
MEAN_MOTION    = 15.67520461
ECCENTRICITY   = .0006751
INCLINATION    = 51.6287
RA_OF_ASC_NODE = 225.2110
ARG_OF_PERICENTER = 176.0216
MEAN_ANOMALY   = 184.0835

EPHEMERIS_TYPE = 0
CLASSIFICATION_TYPE = U
NORAD_CAT_ID   = 65733
ELEMENT_SET_NO = 999
REV_AT_EPOCH   = 1041
BSTAR          = .15075E-2
MEAN_MOTION_DOT = .170259E-2
MEAN_MOTION_DDOT = 0

CCSDS_OMM_VERS = 2.0
CREATION_DATE  = 
ORIGINATOR     = 

OBJECT_NAME    = YOTSUBA-KULOVER
OBJECT_ID      = 1998-067XN
CENTER_NAME    = EARTH
REF_FRAME      = TEME
TIME_SYSTEM    = UTC
MEAN_ELEMENT_THEORY = SGP/SGP4

EPOCH          = 2025-11-24T19:35:53.813184
MEAN_MOTION    = 15.56652021
ECCENTRICITY   = .00023811
INCLINATION    = 51.6301
RA_OF_ASC_NODE = 229.8604
ARG_OF_PERICENTER = 123.8915
MEAN_ANOMALY   = 236.2304

EPHEMERIS_TYPE = 0
CLASSIFICATION_TYPE = U
NORAD_CAT_ID   = 65941
ELEMENT_SET_NO = 999
REV_AT_EPOCH   = 706
BSTAR          = .93112024E-3
MEAN_MOTION_DOT = .6773E-3
MEAN_MOTION_DDOT = 0

CCSDS_OMM_VERS = 2.0
CREATION_DATE  = 
ORIGINATOR     = 

OBJECT_NAME    = BOTAN
OBJECT_ID      = 1998-067XP
CENTER_NAME    = EARTH
REF_FRAME      = TEME
TIME_SYSTEM    = UTC
MEAN_ELEMENT_THEORY = SGP/SGP4

EPOCH          = 2025-11-24T03:32:58.039872
MEAN_MOTION    = 15.58627558
ECCENTRICITY   = .00046795
INCLINATION    = 51.6299
RA_OF_ASC_NODE = 232.8955
ARG_OF_PERICENTER = 127.4021
MEAN_ANOMALY   = 232.7398

EPHEMERIS_TYPE = 0
CLASSIFICATION_TYPE = U
NORAD_CAT_ID   = 65942
ELEMENT_SET_NO = 999
REV_AT_EPOCH   = 696
BSTAR          = .1189409E-2
MEAN_MOTION_DOT = .93675E-3
MEAN_MOTION_DDOT = 0

CCSDS_OMM_VERS = 2.0
CREATION_DATE  = 
ORIGINATOR     = 

OBJECT_NAME    = E-KAGAKU-1
OBJECT_ID      = 1998-067XQ
CENTER_NAME    = EARTH
REF_FRAME      = TEME
TIME_SYSTEM    = UTC
MEAN_ELEMENT_THEORY = SGP/SGP4

EPOCH          = 2025-11-24T02:38:31.699104
MEAN_MOTION    = 15.56534429
ECCENTRICITY   = .00040044
INCLINATION    = 51.6308
RA_OF_ASC_NODE = 233.3942
ARG_OF_PERICENTER = 108.5710
MEAN_ANOMALY   = 251.5717

EPHEMERIS_TYPE = 0
CLASSIFICATION_TYPE = U
NORAD_CAT_ID   = 65943
ELEMENT_SET_NO = 999
REV_AT_EPOCH   = 695
BSTAR          = .88691505E-3
MEAN_MOTION_DOT = .64191E-3
MEAN_MOTION_DDOT = 0

CCSDS_OMM_VERS = 2.0
CREATION_DATE  = 
ORIGINATOR     = 

OBJECT_NAME    = HRC MONOBLOCK CAMERA
OBJECT_ID      = 1998-067XR
CENTER_NAME    = EARTH
REF_FRAME      = TEME
TIME_SYSTEM    = UTC
MEAN_ELEMENT_THEORY = SGP/SGP4

EPOCH          = 2025-11-25T06:43:57.247680
MEAN_MOTION    = 15.52605893
ECCENTRICITY   = .0004707
INCLINATION    = 51.6295
RA_OF_ASC_NODE = 228.4551
ARG_OF_PERICENTER = 114.6049
MEAN_ANOMALY   = 245.5431

EPHEMERIS_TYPE = 0
CLASSIFICATION_TYPE = U
NORAD_CAT_ID   = 66052
ELEMENT_SET_NO = 999
REV_AT_EPOCH   = 612
BSTAR          = .6724E-3
MEAN_MOTION_DOT = .41884E-3
MEAN_MOTION_DDOT = 0

CCSDS_OMM_VERS = 2.0
CREATION_DATE  = 
ORIGINATOR     = 

OBJECT_NAME    = HTV-X1
OBJECT_ID      = 2025-241A
CENTER_NAME    = EARTH
REF_FRAME      = TEME
TIME_SYSTEM    = UTC
MEAN_ELEMENT_THEORY = SGP/SGP4

EPOCH          = 2025-11-24T20:48:53.618400
MEAN_MOTION    = 15.49056620
ECCENTRICITY   = .00038955
INCLINATION    = 51.6314
RA_OF_ASC_NODE = 230.9455
ARG_OF_PERICENTER = 164.8499
MEAN_ANOMALY   = 195.2607

EPHEMERIS_TYPE = 0
CLASSIFICATION_TYPE = U
NORAD_CAT_ID   = 66174
ELEMENT_SET_NO = 999
REV_AT_EPOCH   = 145
BSTAR          = .27142085E-3
MEAN_MOTION_DOT = .14562E-3
MEAN_MOTION_DDOT = 0

